SENTINEL-3A             
1 41335U 16011A   26196.89967383  .00000047  00000+0  37626-4 0  9990
2 41335  98.6237 263.8689 0001357  89.6135 270.5201 14.26739869542152
SENTINEL-3B             
1 43437U 18039A   26196.80268665  .00000043  00000+0  35746-4 0  9992
2 43437  98.6236 263.9224 0001153 119.6296 240.5000 14.26736422428203
